GLOBALSTAR M068         
1 32266U 07048D   26003.15389060  .00000000  00000+0  57812-3 0  9996
2 32266  51.9898  52.6834 0001141 195.0177 199.7472 12.62837484842824
GLOBALSTAR M079         
1 37188U 10054A   26003.05459836 -.00000062  00000+0  23545-3 0  9998
2 37188  52.0029 251.3604 0001015  53.6452  85.9346 12.62269605701697
GLOBALSTAR M074         
1 37189U 10054B   26003.08759802 -.00000055  00000+0  27140-3 0  9995
2 37189  52.0006 250.5516 0001047  72.8222  96.3418 12.62264931702301
GLOBALSTAR M076         
1 37190U 10054C   26003.19544412 -.00000064  00000+0  22207-3 0  9997
2 37190  52.0025 250.4135 0001168  66.2059 112.4140 12.62268800702030
GLOBALSTAR M077         
1 37191U 10054D   26003.13924257 -.00000030  00000+0  88282-3 0  9999
2 37191  51.9951 238.5190 0001589  60.1338 109.8007 11.68177057701854
GLOBALSTAR M075         
1 37192U 10054E   25358.21427079 -.00000088  00000+0  85706-4 0  9993
2 37192  52.0022 322.9423 0000480 109.7567 352.3949 12.62261317699849
GLOBALSTAR M073         
1 37193U 10054F   26003.05137704 -.00000073  00000+0  17401-3 0  9997
2 37193  52.0035 206.9695 0001197  73.0078 110.0356 12.62268785703070
GLOBALSTAR M083         
1 37739U 11033A   26002.64597767 -.00000097  00000+0  36352-4 0  9997
2 37739  51.9841 156.6566 0000973  88.2422 353.6138 12.62266387672040
GLOBALSTAR M088         
1 37740U 11033B   26003.07882692 -.00000073  00000+0  17352-3 0  9993
2 37740  52.0227  61.3660 0000488 134.1016 235.1110 12.62271344667643
GLOBALSTAR M091         
1 37741U 11033C   26003.01516645 -.00000076  00000+0  15355-3 0  9994
2 37741  52.0015  24.7706 0000135 121.3037 257.6115 12.62268493668425
GLOBALSTAR M085         
1 37742U 11033D   26003.09416480 -.00000092  00000+0  65950-4 0  9994
2 37742  52.0150 335.6780 0000361  17.8418  60.8424 12.62267646668948
GLOBALSTAR M081         
1 37743U 11033E   25351.59018587 -.00000087  00000+0  92331-4 0  9998
2 37743  51.9980  28.5496 0000222  94.7932  71.3857 12.62270971667009
GLOBALSTAR M089         
1 37744U 11033F   26003.17352608 -.00000067  00000+0  20571-3 0  9997
2 37744  51.9945 292.2511 0000860  74.7277  65.6490 12.62263154669946
GLOBALSTAR M084         
1 38040U 11080A   26002.61926072 -.00000102  00000+0  12539-4 0  9995
2 38040  51.9994 161.3308 0001294 101.3046 338.3994 12.62267157647855
GLOBALSTAR M080         
1 38041U 11080B   26003.16504391 -.00000105  00000+0 -86365-5 0  9996
2 38041  52.0043 161.3303 0000571 115.7031  55.1629 12.62265526648047
GLOBALSTAR M082         
1 38042U 11080C   26003.02233163 -.00000118  00000+0 -77112-4 0  9991
2 38042  52.0069 117.2477 0000540 127.1364  44.6201 12.62266448648739
GLOBALSTAR M092         
1 38043U 11080D   26003.07534350 -.00000077  00000+0  15169-3 0  9995
2 38043  52.0061 207.4755 0001034  84.0093  88.5088 12.62269124647195
GLOBALSTAR M090         
1 38044U 11080E   26002.73072714 -.00000108  00000+0 -22388-4 0  9997
2 38044  52.0117 112.0381 0000697 105.8853  58.9680 12.62265625648815
GLOBALSTAR M086         
1 38045U 11080F   26002.66996931 -.00000099  00000+0  23949-4 0  9998
2 38045  51.9893 112.4226 0001514  68.2780  71.2844 12.62281752648759
GLOBALSTAR M097         
1 39072U 13005A   26003.14273811 -.00000088  00000+0  87375-4 0  9998
2 39072  52.0069  25.7449 0000323  72.9339 287.1563 12.62267840596063
GLOBALSTAR M093         
1 39073U 13005B   26003.03741530 -.00000088  00000+0  88658-4 0  9990
2 39073  52.0131  19.3507 0000362  26.3264 333.7621 12.62271379596000
GLOBALSTAR M094         
1 39074U 13005C   26003.11653190 -.00000085  00000+0  10746-3 0  9993
2 39074  51.9974 293.3931 0000753  38.2244 321.8676 12.62265534597626
GLOBALSTAR M096         
1 39075U 13005D   26003.12953130 -.00000100  00000+0  22019-4 0  9997
2 39075  52.0102 342.0215 0000419  22.8613 337.2273 12.62269649596542
GLOBALSTAR M078         
1 39076U 13005E   26003.18267166 -.00000103  00000+0  27543-5 0  9992
2 39076  51.9887  66.0992 0000578 239.0838 120.9972 12.62271217595178
GLOBALSTAR M095         
1 39077U 13005F   26003.12981612 -.00000074  00000+0  16459-3 0  9995
2 39077  52.0097  63.6300 0000026 139.7104 220.3765 12.62267602595022
GLOBALSTAR M087         
1 52888U 22064A   26002.98456065 -.00000075  00000+0  16170-3 0  9998
2 52888  51.9972 205.4053 0000979  70.9743 289.1230 12.62262300170276
